[Satellite]
VERSION=1.1
NAME=RADIO ROSTO (RS-15)
NICKNAME=RS-15
TLE1=1 23439U 94085A   17186.29760521 -.00000045  00000-0 -73777-4 0  9998
TLE2=2 23439  64.8125 189.8757 0166913 242.7145 241.8766 11.27566928927453
